CCSDS_OMM_VERS = 2.0
CREATION_DATE  = 
ORIGINATOR     = 

OBJECT_NAME    = STARLINK-35526
OBJECT_ID      = 2025-225X
CENTER_NAME    = EARTH
REF_FRAME      = TEME
TIME_SYSTEM    = UTC
MEAN_ELEMENT_THEORY = SGP/SGP4

EPOCH          = 2025-10-28T16:00:07.000416
MEAN_MOTION    = 15.68986802
ECCENTRICITY   = .00013512
INCLINATION    = 53.1597
RA_OF_ASC_NODE = 62.1068
ARG_OF_PERICENTER = 80.3337
MEAN_ANOMALY   = 146.4355

EPHEMERIS_TYPE = 0
CLASSIFICATION_TYPE = U
NORAD_CAT_ID   = 65931
ELEMENT_SET_NO = 999
REV_AT_EPOCH   = 418
BSTAR          = -.1860248E-1
MEAN_MOTION_DOT = -.1936749E-1
MEAN_MOTION_DDOT = 0

CCSDS_OMM_VERS = 2.0
CREATION_DATE  = 
ORIGINATOR     = 

OBJECT_NAME    = STARLINK-35436
OBJECT_ID      = 2025-225Y
CENTER_NAME    = EARTH
REF_FRAME      = TEME
TIME_SYSTEM    = UTC
MEAN_ELEMENT_THEORY = SGP/SGP4

EPOCH          = 2025-10-28T16:00:07.000416
MEAN_MOTION    = 15.68988278
ECCENTRICITY   = .00013273
INCLINATION    = 53.1594
RA_OF_ASC_NODE = 62.1039
ARG_OF_PERICENTER = 75.3172
MEAN_ANOMALY   = 153.3669

EPHEMERIS_TYPE = 0
CLASSIFICATION_TYPE = U
NORAD_CAT_ID   = 65932
ELEMENT_SET_NO = 999
REV_AT_EPOCH   = 418
BSTAR          = -.18618318E-1
MEAN_MOTION_DOT = -.1938296E-1
MEAN_MOTION_DDOT = 0

CCSDS_OMM_VERS = 2.0
CREATION_DATE  = 
ORIGINATOR     = 

OBJECT_NAME    = STARLINK-35192
OBJECT_ID      = 2025-225Z
CENTER_NAME    = EARTH
REF_FRAME      = TEME
TIME_SYSTEM    = UTC
MEAN_ELEMENT_THEORY = SGP/SGP4

EPOCH          = 2025-10-28T16:00:07.000416
MEAN_MOTION    = 15.68987503
ECCENTRICITY   = .00011307
INCLINATION    = 53.1595
RA_OF_ASC_NODE = 62.0912
ARG_OF_PERICENTER = 74.5290
MEAN_ANOMALY   = 159.9059

EPHEMERIS_TYPE = 0
CLASSIFICATION_TYPE = U
NORAD_CAT_ID   = 65933
ELEMENT_SET_NO = 999
REV_AT_EPOCH   = 418
BSTAR          = -.18608578E-1
MEAN_MOTION_DOT = -.1937198E-1
MEAN_MOTION_DDOT = 0

CCSDS_OMM_VERS = 2.0
CREATION_DATE  = 
ORIGINATOR     = 

OBJECT_NAME    = STARLINK-33921
OBJECT_ID      = 2025-225AA
CENTER_NAME    = EARTH
REF_FRAME      = TEME
TIME_SYSTEM    = UTC
MEAN_ELEMENT_THEORY = SGP/SGP4

EPOCH          = 2025-10-28T16:00:07.000416
MEAN_MOTION    = 15.68951904
ECCENTRICITY   = .00012461
INCLINATION    = 53.1593
RA_OF_ASC_NODE = 62.0997
ARG_OF_PERICENTER = 91.0615
MEAN_ANOMALY   = 139.5687

EPHEMERIS_TYPE = 0
CLASSIFICATION_TYPE = U
NORAD_CAT_ID   = 65934
ELEMENT_SET_NO = 999
REV_AT_EPOCH   = 417
BSTAR          = -.18233223E-1
MEAN_MOTION_DOT = -.1900133E-1
MEAN_MOTION_DDOT = 0

CCSDS_OMM_VERS = 2.0
CREATION_DATE  = 
ORIGINATOR     = 

OBJECT_NAME    = STARLINK-35155
OBJECT_ID      = 2025-225AB
CENTER_NAME    = EARTH
REF_FRAME      = TEME
TIME_SYSTEM    = UTC
MEAN_ELEMENT_THEORY = SGP/SGP4

EPOCH          = 2025-10-28T16:00:07.000416
MEAN_MOTION    = 15.68988307
ECCENTRICITY   = .00011804
INCLINATION    = 53.1595
RA_OF_ASC_NODE = 62.0954
ARG_OF_PERICENTER = 74.6706
MEAN_ANOMALY   = 157.8472

EPHEMERIS_TYPE = 0
CLASSIFICATION_TYPE = U
NORAD_CAT_ID   = 65935
ELEMENT_SET_NO = 999
REV_AT_EPOCH   = 417
BSTAR          = -.18616193E-1
MEAN_MOTION_DOT = -.1937993E-1
MEAN_MOTION_DDOT = 0

CCSDS_OMM_VERS = 2.0
CREATION_DATE  = 
ORIGINATOR     = 

OBJECT_NAME    = STARLINK-35161
OBJECT_ID      = 2025-225AC
CENTER_NAME    = EARTH
REF_FRAME      = TEME
TIME_SYSTEM    = UTC
MEAN_ELEMENT_THEORY = SGP/SGP4

EPOCH          = 2025-10-28T16:00:07.000416
MEAN_MOTION    = 15.68986860
ECCENTRICITY   = .00011986
INCLINATION    = 53.1595
RA_OF_ASC_NODE = 62.0878
ARG_OF_PERICENTER = 71.0814
MEAN_ANOMALY   = 165.2700

EPHEMERIS_TYPE = 0
CLASSIFICATION_TYPE = U
NORAD_CAT_ID   = 65936
ELEMENT_SET_NO = 999
REV_AT_EPOCH   = 418
BSTAR          = -.18596113E-1
MEAN_MOTION_DOT = -.1936054E-1
MEAN_MOTION_DDOT = 0

CCSDS_OMM_VERS = 2.0
CREATION_DATE  = 
ORIGINATOR     = 

OBJECT_NAME    = STARLINK-35473
OBJECT_ID      = 2025-225AD
CENTER_NAME    = EARTH
REF_FRAME      = TEME
TIME_SYSTEM    = UTC
MEAN_ELEMENT_THEORY = SGP/SGP4

EPOCH          = 2025-10-28T16:00:07.000416
MEAN_MOTION    = 15.68985381
ECCENTRICITY   = .00011478
INCLINATION    = 53.1595
RA_OF_ASC_NODE = 62.0843
ARG_OF_PERICENTER = 72.6440
MEAN_ANOMALY   = 165.6258

EPHEMERIS_TYPE = 0
CLASSIFICATION_TYPE = U
NORAD_CAT_ID   = 65937
ELEMENT_SET_NO = 999
REV_AT_EPOCH   = 418
BSTAR          = -.18583524E-1
MEAN_MOTION_DOT = -.1934752E-1
MEAN_MOTION_DDOT = 0

CCSDS_OMM_VERS = 2.0
CREATION_DATE  = 
ORIGINATOR     = 

OBJECT_NAME    = 2025-226A
OBJECT_ID      = 2025-226A
CENTER_NAME    = EARTH
REF_FRAME      = TEME
TIME_SYSTEM    = UTC
MEAN_ELEMENT_THEORY = SGP/SGP4

EPOCH          = 2025-10-28T16:25:13.056960
MEAN_MOTION    = 15.11765434
ECCENTRICITY   = .00145232
INCLINATION    = 97.6665
RA_OF_ASC_NODE = 15.8656
ARG_OF_PERICENTER = 220.4645
MEAN_ANOMALY   = 139.5506

EPHEMERIS_TYPE = 0
CLASSIFICATION_TYPE = U
NORAD_CAT_ID   = 65938
ELEMENT_SET_NO = 999
REV_AT_EPOCH   = 266
BSTAR          = .69026688E-3
MEAN_MOTION_DOT = .11747E-3
MEAN_MOTION_DDOT = 0

CCSDS_OMM_VERS = 2.0
CREATION_DATE  = 
ORIGINATOR     = 

OBJECT_NAME    = 2025-226B
OBJECT_ID      = 2025-226B
CENTER_NAME    = EARTH
REF_FRAME      = TEME
TIME_SYSTEM    = UTC
MEAN_ELEMENT_THEORY = SGP/SGP4

EPOCH          = 2025-10-28T15:16:27.938208
MEAN_MOTION    = 15.09652020
ECCENTRICITY   = .00206564
INCLINATION    = 97.6619
RA_OF_ASC_NODE = 15.7662
ARG_OF_PERICENTER = 224.3983
MEAN_ANOMALY   = 135.5591

EPHEMERIS_TYPE = 0
CLASSIFICATION_TYPE = U
NORAD_CAT_ID   = 65939
ELEMENT_SET_NO = 999
REV_AT_EPOCH   = 264
BSTAR          = .46973645E-3
MEAN_MOTION_DOT = .7534E-4
MEAN_MOTION_DDOT = 0

CCSDS_OMM_VERS = 2.0
CREATION_DATE  = 
ORIGINATOR     = 

OBJECT_NAME    = 2025-226C
OBJECT_ID      = 2025-226C
CENTER_NAME    = EARTH
REF_FRAME      = TEME
TIME_SYSTEM    = UTC
MEAN_ELEMENT_THEORY = SGP/SGP4

EPOCH          = 2025-10-28T16:27:05.140224
MEAN_MOTION    = 15.11654139
ECCENTRICITY   = .0014482
INCLINATION    = 97.6574
RA_OF_ASC_NODE = 15.8451
ARG_OF_PERICENTER = 218.3863
MEAN_ANOMALY   = 141.6338

EPHEMERIS_TYPE = 0
CLASSIFICATION_TYPE = U
NORAD_CAT_ID   = 65940
ELEMENT_SET_NO = 999
REV_AT_EPOCH   = 265
BSTAR          = .71332755E-3
MEAN_MOTION_DOT = .12105E-3
MEAN_MOTION_DDOT = 0

CCSDS_OMM_VERS = 2.0
CREATION_DATE  = 
ORIGINATOR     = 

OBJECT_NAME    = YOTSUBA-KULOVER
OBJECT_ID      = 1998-067XN
CENTER_NAME    = EARTH
REF_FRAME      = TEME
TIME_SYSTEM    = UTC
MEAN_ELEMENT_THEORY = SGP/SGP4

EPOCH          = 2025-10-28T13:28:38.839296
MEAN_MOTION    = 15.52735116
ECCENTRICITY   = .00024105
INCLINATION    = 51.6330
RA_OF_ASC_NODE = 5.8560
ARG_OF_PERICENTER = 324.6826
MEAN_ANOMALY   = 35.4004

EPHEMERIS_TYPE = 0
CLASSIFICATION_TYPE = U
NORAD_CAT_ID   = 65941
ELEMENT_SET_NO = 999
REV_AT_EPOCH   = 282
BSTAR          = .91197536E-3
MEAN_MOTION_DOT = .57339E-3
MEAN_MOTION_DDOT = 0

CCSDS_OMM_VERS = 2.0
CREATION_DATE  = 
ORIGINATOR     = 

OBJECT_NAME    = BOTAN
OBJECT_ID      = 1998-067XP
CENTER_NAME    = EARTH
REF_FRAME      = TEME
TIME_SYSTEM    = UTC
MEAN_ELEMENT_THEORY = SGP/SGP4

EPOCH          = 2025-10-28T13:22:53.218560
MEAN_MOTION    = 15.53420212
ECCENTRICITY   = .00043855
INCLINATION    = 51.6331
RA_OF_ASC_NODE = 5.8297
ARG_OF_PERICENTER = 346.1150
MEAN_ANOMALY   = 13.9719

EPHEMERIS_TYPE = 0
CLASSIFICATION_TYPE = U
NORAD_CAT_ID   = 65942
ELEMENT_SET_NO = 999
REV_AT_EPOCH   = 282
BSTAR          = .11621615E-2
MEAN_MOTION_DOT = .75233E-3
MEAN_MOTION_DDOT = 0

