STARLINK-35526          
1 65931U 25225X   25301.66674769 -.01936749  00000+0 -18602-1 0  9990
2 65931  53.1597  62.1068 0001351  80.3337 146.4355 15.68986802  4187
STARLINK-35436          
1 65932U 25225Y   25301.66674769 -.01938296  00000+0 -18618-1 0  9997
2 65932  53.1594  62.1039 0001327  75.3172 153.3669 15.68988278  4181
STARLINK-35192          
1 65933U 25225Z   25301.66674769 -.01937198  00000+0 -18609-1 0  9998
2 65933  53.1595  62.0912 0001130  74.5290 159.9059 15.68987503  4181
STARLINK-33921          
1 65934U 25225AA  25301.66674769 -.01900133  00000+0 -18233-1 0  9991
2 65934  53.1593  62.0997 0001246  91.0615 139.5687 15.68951904  4172
STARLINK-35155          
1 65935U 25225AB  25301.66674769 -.01937993  00000+0 -18616-1 0  9991
2 65935  53.1595  62.0954 0001180  74.6706 157.8472 15.68988307  4175
STARLINK-35161          
1 65936U 25225AC  25301.66674769 -.01936054  00000+0 -18596-1 0  9996
2 65936  53.1595  62.0878 0001198  71.0814 165.2700 15.68986860  4181
STARLINK-35473          
1 65937U 25225AD  25301.66674769 -.01934752  00000+0 -18584-1 0  9997
2 65937  53.1595  62.0843 0001147  72.6440 165.6258 15.68985381  4189
2025-226A               
1 65938U 25226A   25301.68417890  .00011747  00000+0  69027-3 0  9998
2 65938  97.6665  15.8656 0014523 220.4645 139.5506 15.11765434  2661
2025-226B               
1 65939U 25226B   25301.63643447  .00007534  00000+0  46974-3 0  9998
2 65939  97.6619  15.7662 0020656 224.3983 135.5591 15.09652020  2640
2025-226C               
1 65940U 25226C   25301.68547616  .00012105  00000+0  71333-3 0  9993
2 65940  97.6574  15.8451 0014482 218.3863 141.6338 15.11654139  2653
YOTSUBA-KULOVER         
1 65941U 98067XN  25301.56156064  .00057339  00000+0  91198-3 0  9996
2 65941  51.6330   5.8560 0002410 324.6826  35.4004 15.52735116  2821
BOTAN                   
1 65942U 98067XP  25301.55756040  .00075233  00000+0  11622-2 0  9992
2 65942  51.6331   5.8297 0004385 346.1150  13.9719 15.53420212  2825
